NORAD_CAT_ID,OBJECT_NAME,OBJECT_TYPE,EPOCH,MEAN_MOTION,ECCENTRICITY,INCLINATION,RA_OF_ASC_NODE,ARG_OF_PERICENTER,MEAN_ANOMALY,BSTAR,MEAN_MOTION_DOT,MEAN_MOTION_DDOT,TLE_LINE0,TLE_LINE1,TLE_LINE2,SEMIMAJOR_AXIS,PERIOD,APOGEE,PERIGEE,DECAYED
53611.0,STARLINK-4650,PAYLOAD,2024-04-20 03:56:09,15.12240011,0.0002897,53.2189,82.0957,223.5187,136.5578,-2.5838e-05,-7.5e-06,0.0,0 STARLINK-4650,1 53611U 22104Z   24111.16399899 -.00000750  00000-0 -25838-4 0  9992,2 53611  53.2189  82.0957 0002897 223.5187 136.5578 15.12240011 91160,6907.507,95.223,531.373,527.371,0.0
53611.0,STARLINK-4650,PAYLOAD,2024-04-20 07:06:29,15.12238501,0.0002845,53.2207,81.503,221.2585,138.8194,0.0001482,2.293e-05,0.0,0 STARLINK-4650,1 53611U 22104Z   24111.29617703  .00002293  00000-0  14820-3 0  9993,2 53611  53.2207  81.5030 0002845 221.2585 138.8194 15.12238501 91875,6907.512,95.223,531.342,527.412,0.0
53611.0,STARLINK-4650,PAYLOAD,2024-04-21 05:18:53,15.12234164,0.0003675,53.2194,77.3259,217.9397,142.1339,0.00010907,1.608e-05,0.0,0 STARLINK-4650,1 53611U 22104Z   24112.22145687  .00001608  00000-0  10907-3 0  9995,2 53611  53.2194  77.3259 0003675 217.9397 142.1339 15.12234164 92018,6907.525,95.223,531.929,526.852,0.0
53611.0,STARLINK-4650,PAYLOAD,2024-04-21 21:10:38,15.12229206,0.0002832,53.2206,74.3516,219.1297,140.9492,-0.0001483,-2.889e-05,0.0,0 STARLINK-4650,1 53611U 22104Z   24112.88238972 -.00002889  00000-0 -14830-3 0  9990,2 53611  53.2206  74.3516 0002832 219.1297 140.9492 15.12229206 91423,6907.54,95.224,531.362,527.449,0.0
53611.0,STARLINK-4650,PAYLOAD,2024-04-22 03:31:20,15.12222509,0.0002798,53.2209,73.1572,221.8962,138.1818,-0.0001775,-3.399e-05,0.0,0 STARLINK-4650,1 53611U 22104Z   24113.14676233 -.00003399  00000-0 -17750-3 0  9997,2 53611  53.2209  73.1572 0002798 221.8962 138.1818 15.12222509 91469,6907.561,95.224,531.358,527.493,0.0
53611.0,STARLINK-4650,PAYLOAD,2024-04-22 06:41:40,15.12226966,0.0003043,53.221,72.5577,218.6973,141.3803,-0.00013803,-2.71e-05,0.0,0 STARLINK-4650,1 53611U 22104Z   24113.27894042 -.00002710  00000-0 -13803-3 0  9992,2 53611  53.2210  72.5577 0003043 218.6973 141.3803 15.12226966 91482,6907.547,95.224,531.514,527.31,0.0
53611.0,STARLINK-4650,PAYLOAD,2024-04-23 03:18:54,15.12217389,0.0003528,53.2188,68.677,215.6861,144.3897,-6.3346e-05,-1.405e-05,0.0,0 STARLINK-4650,1 53611U 22104Z   24114.13813390 -.00001405  00000-0 -63346-4 0  9993,2 53611  53.2188  68.6770 0003528 215.6861 144.3897 15.12217389 92305,6907.576,95.224,531.878,527.004,0.0
53611.0,STARLINK-4650,PAYLOAD,2024-04-23 20:45:49,15.12205203,0.0004115,53.219,65.3952,207.3479,152.7298,-3.8529e-05,-9.72e-06,0.0,0 STARLINK-4650,1 53611U 22104Z   24114.86515571 -.00000972  00000-0 -38529-4 0  9996,2 53611  53.2190  65.3952 0004115 207.3479 152.7298 15.12205203 91725,6907.613,95.225,532.321,526.636,0.0
53611.0,STARLINK-4650,PAYLOAD,2024-04-24 03:06:29,15.12281552,0.0004277,53.2179,64.2051,211.8634,148.2102,-0.00085244,-0.00015191,0.0,0 STARLINK-4650,1 53611U 22104Z   24115.12950557 -.00015191  00000-0 -85244-3 0  9997,2 53611  53.2179  64.2051 0004277 211.8634 148.2102 15.12281552 91761,6907.381,95.22,532.2,526.292,0.0
53611.0,STARLINK-4650,PAYLOAD,2024-04-24 06:16:50,15.12245364,0.0003987,53.218,63.6094,208.5696,151.508,-0.00044818,-8.128e-05,0.0,0 STARLINK-4650,1 53611U 22104Z   24115.26169645 -.00008128  00000-0 -44818-3 0  9996,2 53611  53.2180  63.6094 0003987 208.5696 151.5080 15.12245364 91786,6907.491,95.223,532.11,526.602,0.0
53611.0,STARLINK-4650,PAYLOAD,2024-04-25 01:18:56,15.12194179,0.0004444,53.2193,60.0313,202.7372,157.3426,-1.8916e-05,-6.29e-06,0.0,0 STARLINK-4650,1 53611U 22104Z   24116.05482603 -.00000629  00000-0 -18916-4 0  9995,2 53611  53.2193  60.0313 0004444 202.7372 157.3426 15.12194179 91900,6907.647,95.226,532.582,526.442,0.0
53611.0,STARLINK-4650,PAYLOAD,2024-04-25 06:04:27,15.12197026,0.0004547,53.2193,59.1356,202.3696,157.71,2.621e-06,-2.53e-06,0.0,0 STARLINK-4650,1 53611U 22104Z   24116.25310151 -.00000253  00000-0  26210-5 0  9994,2 53611  53.2193  59.1356 0004547 202.3696 157.7100 15.12197026 92622,6907.638,95.226,532.644,526.362,0.0
53611.0,STARLINK-4650,PAYLOAD,2024-04-26 02:41:43,15.12193945,0.0004422,53.2202,55.2561,204.4409,155.6376,2.1273e-05,7.2e-07,0.0,0 STARLINK-4650,1 53611U 22104Z   24117.11230921  .00000072  00000-0  21273-4 0  9997,2 53611  53.2202  55.2561 0004422 204.4409 155.6376 15.12193945 92061,6907.648,95.226,532.567,526.458,0.0
53611.0,STARLINK-4650,PAYLOAD,2024-04-26 05:52:04,15.12193273,0.0004441,53.2203,54.6601,204.4569,155.6215,1.3878e-05,-5.7e-07,0.0,0 STARLINK-4650,1 53611U 22104Z   24117.24449536 -.00000057  00000-0  13878-4 0  9991,2 53611  53.2203  54.6601 0004441 204.4569 155.6215 15.12193273 92772,6907.65,95.226,532.582,526.447,0.0
53611.0,STARLINK-4650,PAYLOAD,2024-04-27 02:29:18,15.12204121,0.0004488,53.2196,50.7841,206.0091,154.0678,0.00012997,1.972e-05,0.0,0 STARLINK-4650,1 53611U 22104Z   24118.10368961  .00001972  00000-0  12997-3 0  9995,2 53611  53.2196  50.7841 0004488 206.0091 154.0678 15.12204121 92215,6907.617,95.225,532.582,526.382,0.0
53611.0,STARLINK-4650,PAYLOAD,2024-04-27 12:00:20,15.12214639,0.0004382,53.2203,48.9945,205.9708,154.1066,0.00015349,2.384e-05,0.0,0 STARLINK-4650,1 53611U 22104Z   24118.50023520  .00002384  00000-0  15349-3 0  9990,2 53611  53.2203  48.9945 0004382 205.9708 154.1066 15.12214639 92277,6907.585,95.225,532.477,526.423,0.0
53611.0,STARLINK-4650,PAYLOAD,2024-04-27 19:56:12,15.12213885,0.0004553,53.2208,47.505,204.1897,155.8883,0.000114,1.693e-05,0.0,0 STARLINK-4650,1 53611U 22104Z   24118.83069844  .00001693  00000-0  11400-3 0  9991,2 53611  53.2208  47.5050 0004553 204.1897 155.8883 15.12213885 93014,6907.587,95.225,532.597,526.307,0.0
53611.0,STARLINK-4650,PAYLOAD,2024-04-28 02:16:54,15.12208786,0.0004528,53.2205,46.3112,204.8478,155.2298,0.00011326,1.68e-05,0.0,0 STARLINK-4650,1 53611U 22104Z   24119.09507009  .00001680  00000-0  11326-3 0  9993,2 53611  53.2205  46.3112 0004528 204.8478 155.2298 15.12208786 92366,6907.602,95.225,532.595,526.34,0.0
53611.0,STARLINK-4650,PAYLOAD,2024-04-28 11:47:57,15.12185935,0.0004459,53.2203,44.5221,205.6894,154.3878,0.00026039,4.25e-05,0.0,0 STARLINK-4650,1 53611U 22104Z   24119.49163405  .00004250  00000-0  26039-3 0  9998,2 53611  53.2203  44.5221 0004459 205.6894 154.3878 15.12185935 92420,6907.672,95.226,532.617,526.457,0.0
53611.0,STARLINK-4650,PAYLOAD,2024-04-28 22:54:10,15.12194641,0.0004508,53.2219,42.4381,202.2181,157.8618,-0.00011521,-2.311e-05,0.0,0 STARLINK-4650,1 53611U 22104Z   24119.95428974 -.00002311  00000-0 -11521-3 0  9992,2 53611  53.2219  42.4381 0004508 202.2181 157.8618 15.12194641 93186,6907.646,95.226,532.625,526.397,0.0
53611.0,STARLINK-4650,PAYLOAD,2024-04-29 11:35:33,15.12204993,0.0004334,53.2208,40.0492,205.1867,154.8916,-0.00010602,-2.151e-05,0.0,0 STARLINK-4650,1 53611U 22104Z   24120.48302286 -.00002151  00000-0 -10602-3 0  9990,2 53611  53.2208  40.0492 0004334 205.1867 154.8916 15.12204993 92573,6907.614,95.225,532.473,526.485,0.0
53611.0,STARLINK-4650,PAYLOAD,2024-04-29 22:41:45,15.1221248,0.0004425,53.2217,37.9633,204.6115,155.4668,-3.5272e-05,-9.15e-06,0.0,0 STARLINK-4650,1 53611U 22104Z   24120.94566220 -.00000915  00000-0 -35272-4 0  9998,2 53611  53.2217  37.9633 0004425 204.6115 155.4668 15.12212480 93332,6907.591,95.225,532.513,526.4,0.0
53611.0,STARLINK-4650,PAYLOAD,2024-04-30 03:27:16,15.12211969,0.0004254,53.2206,37.0672,207.1199,152.9573,1.3713e-05,-5.9e-07,0.0,0 STARLINK-4650,1 53611U 22104Z   24121.14393731 -.00000059  00000-0  13713-4 0  9990,2 53611  53.2206  37.0672 0004254 207.1199 152.9573 15.12211969 92678,6907.593,95.225,532.396,526.519,0.0
53611.0,STARLINK-4650,PAYLOAD,2024-04-30 11:23:08,15.12211644,0.0004313,53.2208,35.5766,207.1726,152.9043,1.1612e-05,-9.6e-07,0.0,0 STARLINK-4650,1 53611U 22104Z   24121.47439907 -.00000096  00000-0  11612-4 0  9999,2 53611  53.2208  35.5766 0004313 207.1726 152.9043 15.12211644 93414,6907.594,95.225,532.438,526.48,0.0
53611.0,STARLINK-4650,PAYLOAD,2024-04-30 22:29:21,15.12200672,0.0004335,53.2206,33.489,206.9626,153.1143,9.9227e-05,1.435e-05,0.0,0 STARLINK-4650,1 53611U 22104Z   24121.93705078  .00001435  00000-0  99227-4 0  9990,2 53611  53.2206  33.4890 0004335 206.9626 153.1143 15.12200672 93487,6907.627,95.225,532.487,526.498,0.0
53611.0,STARLINK-4650,PAYLOAD,2024-05-01 11:10:43,15.12214501,0.0004289,53.2198,31.103,209.0716,151.0039,0.00013884,2.128e-05,0.0,0 STARLINK-4650,1 53611U 22104Z   24122.46577944  .00002128  00000-0  13884-3 0  9992,2 53611  53.2198  31.1030 0004289 209.0716 151.0039 15.12214501 92879,6907.585,95.225,532.413,526.487,0.0
53611.0,STARLINK-4650,PAYLOAD,2024-05-02 03:02:28,15.1220577,0.0004341,53.2203,28.1194,210.2793,149.7951,-6.1617e-05,-1.375e-05,0.0,0 STARLINK-4650,1 53611U 22104Z   24123.12671582 -.00001375  00000-0 -61617-4 0  9992,2 53611  53.2203  28.1194 0004341 210.2793 149.7951 15.12205770 92977,6907.612,95.225,532.475,526.478,0.0
53611.0,STARLINK-4650,PAYLOAD,2024-05-02 10:58:19,15.12217592,0.0004243,53.2201,26.632,211.7489,148.3249,4.5838e-05,5.02e-06,0.0,0 STARLINK-4650,1 53611U 22104Z   24123.45716581  .00000502  00000-0  45838-4 0  9993,2 53611  53.2201  26.6320 0004243 211.7489 148.3249 15.12217592 93025,6907.576,95.224,532.372,526.51,0.0
53611.0,STARLINK-4650,PAYLOAD,2024-05-03 10:45:53,15.12226367,0.0004401,53.2192,22.1559,213.7632,146.3082,5.2134e-05,6.12e-06,0.0,0 STARLINK-4650,1 53611U 22104Z   24124.44853856  .00000612  00000-0  52134-4 0  9999,2 53611  53.2192  22.1559 0004401 213.7632 146.3082 15.12226367 93862,6907.549,95.224,532.454,526.374,0.0
53611.0,STARLINK-4650,PAYLOAD,2024-05-03 17:06:35,15.12210707,0.0004314,53.2195,20.9624,210.1023,149.9723,7.6267e-05,1.034e-05,0.0,0 STARLINK-4650,1 53611U 22104Z   24124.71291644  .00001034  00000-0  76267-4 0  9992,2 53611  53.2195  20.9624 0004314 210.1023 149.9723 15.12210707 93213,6907.597,95.225,532.442,526.482,0.0
